OBJECT_NAME,OBJECT_ID,EPOCH,MEAN_MOTION,ECCENTRICITY,INCLINATION,RA_OF_ASC_NODE,ARG_OF_PERICENTER,MEAN_ANOMALY,EPHEMERIS_TYPE,CLASSIFICATION_TYPE,NORAD_CAT_ID,ELEMENT_SET_NO,REV_AT_EPOCH,BSTAR,MEAN_MOTION_DOT,MEAN_MOTION_DDOT
STARLINK-30894,2023-178B,2026-02-07T14:08:43.701216,15.30199235,.000115,53.1601,140.8360,136.6898,223.4193,0,U,58375,999,12521,.21059E-4,.265E-5,0
STARLINK-30910,2023-178C,2026-02-07T14:13:17.317056,15.30200799,.0001126,53.1605,140.8552,96.0875,264.0254,0,U,58376,999,12528,.19992E-4,.233E-5,0
STARLINK-30914,2023-178D,2026-02-07T13:56:34.117152,15.30197244,.0001208,53.1576,140.7714,125.5720,234.5394,0,U,58377,999,12528,.17326E-3,.4775E-4,0
STARLINK-30920,2023-178E,2026-02-07T13:05:48.091200,15.30192581,.0000945,53.1601,128.5256,101.6888,258.4219,0,U,58378,999,12545,.74875E-4,.1859E-4,0
STARLINK-30882,2023-178F,2026-02-07T14:17:50.897472,15.30196668,.0001223,53.1606,140.8738,88.6046,271.5095,0,U,58379,999,12528,-.39061E-5,-.475E-5,0
STARLINK-30915,2023-178G,2026-02-07T10:21:37.950336,15.30199316,.00021406,53.1601,51.8762,102.8581,257.2659,0,U,58380,999,12648,.48009172E-4,.1062E-4,0
STARLINK-30923,2023-178H,2026-02-07T12:57:28.484928,15.30181268,.0002039,53.1602,141.1959,48.2981,311.8194,0,U,58381,999,12520,-.15077E-4,-.806E-5,0
STARLINK-30927,2023-178J,2026-02-07T13:17:13.428960,15.30194630,.0000924,53.1582,141.3156,81.1002,279.0104,0,U,58382,999,12525,.19625E-3,.5457E-4,0
STARLINK-30921,2023-178K,2026-02-07T14:26:58.873920,15.30178609,.0001257,53.1606,140.9181,87.9221,272.1923,0,U,58383,999,12526,.1736E-3,.4782E-4,0
STARLINK-30825,2023-178L,2026-02-07T14:04:09.973920,15.30188498,.0000907,53.1596,140.7888,110.1970,249.9128,0,U,58384,999,12528,.64946E-4,.1564E-4,0
STARLINK-30930,2023-178M,2026-02-07T11:52:07.599360,15.30208188,.00010495,53.1573,140.9500,127.4651,232.6445,0,U,58385,999,12514,.28188915E-3,.8001E-4,0
STARLINK-30929,2023-178N,2026-02-07T13:44:31.944480,15.30197817,.0001214,53.1584,141.2321,108.8956,251.2176,0,U,58386,999,12525,.33201E-4,.624E-5,0
STARLINK-30898,2023-178P,2026-02-07T13:30:52.488864,15.30201113,.0001077,53.1572,141.2524,77.4008,282.7113,0,U,58387,999,12527,.17207E-3,.474E-4,0
STARLINK-30913,2023-178Q,2026-02-07T13:11:08.359584,15.30213574,.0001494,53.1597,141.2890,131.1761,228.9369,0,U,58388,999,12527,.21103E-3,.5898E-4,0
STARLINK-30938,2023-178R,2026-02-07T13:14:10.671360,15.30199568,.0001111,53.1593,141.3086,114.4710,245.6406,0,U,58389,999,12527,.55317E-4,.128E-4,0
STARLINK-30868,2023-178S,2026-02-07T13:02:01.449312,15.30202983,.0001495,53.1598,141.2537,120.3791,239.7357,0,U,58390,999,12527,.21211E-4,.269E-5,0
STARLINK-30916,2023-178T,2026-02-07T13:21:45.767808,15.30190461,.000123,53.1596,141.2448,63.4847,296.6280,0,U,58391,999,12527,.87656E-4,.2237E-4,0
STARLINK-30939,2023-178V,2026-02-07T14:22:24.547872,15.30197821,.0001413,53.1607,140.8918,95.8662,264.2500,0,U,58393,999,12515,.63016E-4,.1507E-4,0
STARLINK-30887,2023-178W,2026-02-07T13:39:59.228928,15.30189751,.0001344,53.1603,141.2489,89.6788,270.4367,0,U,58394,999,12525,.38599E-4,.784E-5,0
STARLINK-30934,2023-178X,2026-02-07T13:06:35.834976,15.30203041,.0001348,53.1609,141.3426,129.9971,230.1149,0,U,58395,999,12520,.40833E-4,.85E-5,0
MALLIGYONG-1,2023-179A,2026-02-07T22:24:54.609696,15.21749589,.00101153,97.3205,284.0538,117.2943,242.9324,0,U,58400,999,12309,.18981593E-3,.4239E-4,0
STARLINK-30964,2023-180A,2026-02-06T22:39:30.289248,15.02535596,.00013872,43.0017,222.7912,261.4967,98.5718,0,U,58402,999,12296,.54371351E-4,.531E-5,0
STARLINK-30844,2023-180B,2026-02-07T19:09:44.414208,15.02540075,.00013364,43.0013,218.8811,260.3624,99.7067,0,U,58403,999,12297,-.49663196E-4,-.874E-5,0
STARLINK-30876,2023-180C,2026-02-06T22:20:29.425632,15.02557477,.0001144,43.0027,223.5531,271.7810,88.2901,0,U,58404,999,12295,-.91123E-4,-.1435E-4,0
STARLINK-30952,2023-180D,2026-02-07T19:00:09.651168,15.02540266,.00012946,43.0025,218.8311,279.0984,80.9711,0,U,58405,999,12297,.99447075E-4,.114E-4,0
STARLINK-30925,2023-180E,2026-02-06T20:35:10.415616,15.02538237,.0001668,43.0021,223.8593,212.0266,148.0475,0,U,58406,999,12283,-.2241E-3,-.323E-4,0
STARLINK-30954,2023-180F,2026-02-07T11:20:32.388576,15.02532684,.00011545,43.0021,219.8744,270.1994,89.8716,0,U,58407,999,12304,.4373795E-5,-.144E-5,0
STARLINK-30906,2023-180G,2026-02-07T19:28:54.008544,15.02521897,.00012822,43.0018,218.8131,263.8724,96.1972,0,U,58408,999,12297,.50833105E-4,.483E-5,0
STARLINK-30940,2023-180H,2026-02-07T04:01:40.791072,15.27567985,.00009448,43.0030,79.8355,230.9135,129.1633,0,U,58409,999,12466,-.23228339E-4,-.901E-5,0
STARLINK-30933,2023-180J,2026-02-07T02:43:56.961408,15.27580896,.00005908,43.0007,79.4213,218.6137,141.4673,0,U,58410,999,12466,-.30422658E-4,-.1099E-4,0
