STARLINK-30894          
1 58375U 23178B   26038.58939469  .00000265  00000+0  21059-4 0  9994
2 58375  53.1601 140.8360 0001150 136.6898 223.4193 15.30199235125219
STARLINK-30910          
1 58376U 23178C   26038.59256154  .00000233  00000+0  19992-4 0  9997
2 58376  53.1605 140.8552 0001126  96.0875 264.0254 15.30200799125288
STARLINK-30914          
1 58377U 23178D   26038.58095043  .00004775  00000+0  17326-3 0  9998
2 58377  53.1576 140.7714 0001208 125.5720 234.5394 15.30197244125280
STARLINK-30920          
1 58378U 23178E   26038.54569550  .00001859  00000+0  74875-4 0  9997
2 58378  53.1601 128.5256 0000945 101.6888 258.4219 15.30192581125451
STARLINK-30882          
1 58379U 23178F   26038.59572798 -.00000475  00000+0 -39061-5 0  9995
2 58379  53.1606 140.8738 0001223  88.6046 271.5095 15.30196668125288
STARLINK-30915          
1 58380U 23178G   26038.43168924  .00001062  00000+0  48009-4 0  9994
2 58380  53.1601  51.8762 0002140 102.8581 257.2659 15.30199316126488
STARLINK-30923          
1 58381U 23178H   26038.53991302 -.00000806  00000+0 -15077-4 0  9996
2 58381  53.1602 141.1959 0002039  48.2981 311.8194 15.30181268125202
STARLINK-30927          
1 58382U 23178J   26038.55362765  .00005457  00000+0  19625-3 0  9991
2 58382  53.1582 141.3156 0000924  81.1002 279.0104 15.30194630125250
STARLINK-30921          
1 58383U 23178K   26038.60207030  .00004782  00000+0  17360-3 0  9995
2 58383  53.1606 140.9181 0001257  87.9221 272.1923 15.30178609125260
STARLINK-30825          
1 58384U 23178L   26038.58622655  .00001564  00000+0  64946-4 0  9995
2 58384  53.1596 140.7888 0000907 110.1970 249.9128 15.30188498125280
STARLINK-30930          
1 58385U 23178M   26038.49453240  .00008001  00000+0  28189-3 0  9999
2 58385  53.1573 140.9500 0001049 127.4651 232.6445 15.30208188125149
STARLINK-30929          
1 58386U 23178N   26038.57259195  .00000624  00000+0  33201-4 0  9997
2 58386  53.1584 141.2321 0001214 108.8956 251.2176 15.30197817125258
STARLINK-30898          
1 58387U 23178P   26038.56310751  .00004740  00000+0  17207-3 0  9993
2 58387  53.1572 141.2524 0001077  77.4008 282.7113 15.30201113125274
STARLINK-30913          
1 58388U 23178Q   26038.54940231  .00005898  00000+0  21103-3 0  9999
2 58388  53.1597 141.2890 0001494 131.1761 228.9369 15.30213574125274
STARLINK-30938          
1 58389U 23178R   26038.55151240  .00001280  00000+0  55317-4 0  9991
2 58389  53.1593 141.3086 0001111 114.4710 245.6406 15.30199568125277
STARLINK-30868          
1 58390U 23178S   26038.54307233  .00000269  00000+0  21211-4 0  9999
2 58390  53.1598 141.2537 0001495 120.3791 239.7357 15.30202983125279
STARLINK-30916          
1 58391U 23178T   26038.55677972  .00002237  00000+0  87656-4 0  9993
2 58391  53.1596 141.2448 0001230  63.4847 296.6280 15.30190461125279
STARLINK-30939          
1 58393U 23178V   26038.59889523  .00001507  00000+0  63016-4 0  9999
2 58393  53.1607 140.8918 0001413  95.8662 264.2500 15.30197821125158
STARLINK-30887          
1 58394U 23178W   26038.56943552  .00000784  00000+0  38599-4 0  9994
2 58394  53.1603 141.2489 0001344  89.6788 270.4367 15.30189751125250
STARLINK-30934          
1 58395U 23178X   26038.54624809  .00000850  00000+0  40833-4 0  9992
2 58395  53.1609 141.3426 0001348 129.9971 230.1149 15.30203041125200
MALLIGYONG-1            
1 58400U 23179A   26038.93396539  .00004239  00000+0  18982-3 0  9993
2 58400  97.3205 284.0538 0010115 117.2943 242.9324 15.21749589123092
STARLINK-30964          
1 58402U 23180A   26037.94410057  .00000531  00000+0  54371-4 0  9993
2 58402  43.0017 222.7912 0001387 261.4967  98.5718 15.02535596122964
STARLINK-30844          
1 58403U 23180B   26038.79843072 -.00000874  00000+0 -49663-4 0  9995
2 58403  43.0013 218.8811 0001336 260.3624  99.7067 15.02540075122976
STARLINK-30876          
1 58404U 23180C   26037.93089613 -.00001435  00000+0 -91123-4 0  9996
2 58404  43.0027 223.5531 0001144 271.7810  88.2901 15.02557477122956
STARLINK-30952          
1 58405U 23180D   26038.79177837  .00001140  00000+0  99447-4 0  9996
2 58405  43.0025 218.8311 0001294 279.0984  80.9711 15.02540266122975
STARLINK-30925          
1 58406U 23180E   26037.85775944 -.00003230  00000+0 -22410-3 0  9995
2 58406  43.0021 223.8593 0001668 212.0266 148.0475 15.02538237122838
STARLINK-30954          
1 58407U 23180F   26038.47259709 -.00000144  00000+0  43738-5 0  9999
2 58407  43.0021 219.8744 0001154 270.1994  89.8716 15.02532684123049
STARLINK-30906          
1 58408U 23180G   26038.81173621  .00000483  00000+0  50833-4 0  9994
2 58408  43.0018 218.8131 0001282 263.8724  96.1972 15.02521897122977
STARLINK-30940          
1 58409U 23180H   26038.16783323 -.00000901  00000+0 -23228-4 0  9994
2 58409  43.0030  79.8355 0000944 230.9135 129.1633 15.27567985124664
STARLINK-30933          
1 58410U 23180J   26038.11385372 -.00001099  00000+0 -30423-4 0  9997
2 58410  43.0007  79.4213 0000590 218.6137 141.4673 15.27580896124668
